CCSDS_OMM_VERS = 2.0
CREATION_DATE  = 
ORIGINATOR     = 

OBJECT_NAME    = SL-16 R/B
OBJECT_ID      = 1994-074B
CENTER_NAME    = EARTH
REF_FRAME      = TEME
TIME_SYSTEM    = UTC
MEAN_ELEMENT_THEORY = SGP/SGP4

EPOCH          = 2025-12-11T02:52:59.681280
MEAN_MOTION    = 14.79286647
ECCENTRICITY   = .0007451
INCLINATION    = 97.7204
RA_OF_ASC_NODE = 14.4891
ARG_OF_PERICENTER = 140.3645
MEAN_ANOMALY   = 286.2797

EPHEMERIS_TYPE = 0
CLASSIFICATION_TYPE = U
NORAD_CAT_ID   = 23343
ELEMENT_SET_NO = 999
REV_AT_EPOCH   = 67415
BSTAR          = .10862368E-3
MEAN_MOTION_DOT = .759E-5
MEAN_MOTION_DDOT = 0

CCSDS_OMM_VERS = 2.0
CREATION_DATE  = 
ORIGINATOR     = 

OBJECT_NAME    = SL-16 R/B
OBJECT_ID      = 1994-077B
CENTER_NAME    = EARTH
REF_FRAME      = TEME
TIME_SYSTEM    = UTC
MEAN_ELEMENT_THEORY = SGP/SGP4

EPOCH          = 2025-12-11T07:04:53.158944
MEAN_MOTION    = 14.15548823
ECCENTRICITY   = .00046236
INCLINATION    = 70.9811
RA_OF_ASC_NODE = 178.4530
ARG_OF_PERICENTER = 285.2154
MEAN_ANOMALY   = 74.8457

EPHEMERIS_TYPE = 0
CLASSIFICATION_TYPE = U
NORAD_CAT_ID   = 23405
ELEMENT_SET_NO = 999
REV_AT_EPOCH   = 60372
BSTAR          = .18191586E-3
MEAN_MOTION_DOT = .308E-5
MEAN_MOTION_DDOT = 0

CCSDS_OMM_VERS = 2.0
CREATION_DATE  = 
ORIGINATOR     = 

OBJECT_NAME    = ARIANE 40+ R/B
OBJECT_ID      = 1995-021B
CENTER_NAME    = EARTH
REF_FRAME      = TEME
TIME_SYSTEM    = UTC
MEAN_ELEMENT_THEORY = SGP/SGP4

EPOCH          = 2025-12-11T15:27:59.637600
MEAN_MOTION    = 14.39694304
ECCENTRICITY   = .00075401
INCLINATION    = 98.4652
RA_OF_ASC_NODE = 53.2465
ARG_OF_PERICENTER = 52.9709
MEAN_ANOMALY   = 110.9669

EPHEMERIS_TYPE = 0
CLASSIFICATION_TYPE = U
NORAD_CAT_ID   = 23561
ELEMENT_SET_NO = 999
REV_AT_EPOCH   = 60657
BSTAR          = .18016262E-3
MEAN_MOTION_DOT = .52E-5
MEAN_MOTION_DDOT = 0

CCSDS_OMM_VERS = 2.0
CREATION_DATE  = 
ORIGINATOR     = 

OBJECT_NAME    = SL-16 R/B
OBJECT_ID      = 1995-058B
CENTER_NAME    = EARTH
REF_FRAME      = TEME
TIME_SYSTEM    = UTC
MEAN_ELEMENT_THEORY = SGP/SGP4

EPOCH          = 2025-12-11T12:13:56.258688
MEAN_MOTION    = 14.15483792
ECCENTRICITY   = .00149687
INCLINATION    = 71.0225
RA_OF_ASC_NODE = 5.3869
ARG_OF_PERICENTER = 256.9293
MEAN_ANOMALY   = 103.0160

EPHEMERIS_TYPE = 0
CLASSIFICATION_TYPE = U
NORAD_CAT_ID   = 23705
ELEMENT_SET_NO = 999
REV_AT_EPOCH   = 55537
BSTAR          = .84010378E-4
MEAN_MOTION_DOT = .117E-5
MEAN_MOTION_DDOT = 0

CCSDS_OMM_VERS = 2.0
CREATION_DATE  = 
ORIGINATOR     = 

OBJECT_NAME    = SL-16 R/B
OBJECT_ID      = 1996-051B
CENTER_NAME    = EARTH
REF_FRAME      = TEME
TIME_SYSTEM    = UTC
MEAN_ELEMENT_THEORY = SGP/SGP4

EPOCH          = 2025-12-11T11:55:50.259936
MEAN_MOTION    = 14.12396517
ECCENTRICITY   = .0019381
INCLINATION    = 70.7594
RA_OF_ASC_NODE = 1.9144
ARG_OF_PERICENTER = 262.8452
MEAN_ANOMALY   = 97.0464

EPHEMERIS_TYPE = 0
CLASSIFICATION_TYPE = U
NORAD_CAT_ID   = 24298
ELEMENT_SET_NO = 999
REV_AT_EPOCH   = 50919
BSTAR          = .46668726E-4
MEAN_MOTION_DOT = .37E-6
MEAN_MOTION_DDOT = 0

CCSDS_OMM_VERS = 2.0
CREATION_DATE  = 
ORIGINATOR     = 

OBJECT_NAME    = ORBVIEW 2 (SEASTAR)
OBJECT_ID      = 1997-037A
CENTER_NAME    = EARTH
REF_FRAME      = TEME
TIME_SYSTEM    = UTC
MEAN_ELEMENT_THEORY = SGP/SGP4

EPOCH          = 2025-12-11T10:50:08.006784
MEAN_MOTION    = 14.35416016
ECCENTRICITY   = .0001715
INCLINATION    = 98.8456
RA_OF_ASC_NODE = 142.4935
ARG_OF_PERICENTER = 346.1047
MEAN_ANOMALY   = 14.0090

EPHEMERIS_TYPE = 0
CLASSIFICATION_TYPE = U
NORAD_CAT_ID   = 24883
ELEMENT_SET_NO = 999
REV_AT_EPOCH   = 49581
BSTAR          = .2157175E-3
MEAN_MOTION_DOT = .573E-5
MEAN_MOTION_DDOT = 0

CCSDS_OMM_VERS = 2.0
CREATION_DATE  = 
ORIGINATOR     = 

OBJECT_NAME    = SL-16 R/B
OBJECT_ID      = 1998-043G
CENTER_NAME    = EARTH
REF_FRAME      = TEME
TIME_SYSTEM    = UTC
MEAN_ELEMENT_THEORY = SGP/SGP4

EPOCH          = 2025-12-11T11:09:58.119264
MEAN_MOTION    = 14.26025220
ECCENTRICITY   = .00087911
INCLINATION    = 98.8123
RA_OF_ASC_NODE = 293.2762
ARG_OF_PERICENTER = 270.9317
MEAN_ANOMALY   = 89.0856

EPHEMERIS_TYPE = 0
CLASSIFICATION_TYPE = U
NORAD_CAT_ID   = 25400
ELEMENT_SET_NO = 999
REV_AT_EPOCH   = 42641
BSTAR          = .86090005E-4
MEAN_MOTION_DOT = .16E-5
MEAN_MOTION_DDOT = 0

CCSDS_OMM_VERS = 2.0
CREATION_DATE  = 
ORIGINATOR     = 

OBJECT_NAME    = SL-16 R/B
OBJECT_ID      = 1998-045B
CENTER_NAME    = EARTH
REF_FRAME      = TEME
TIME_SYSTEM    = UTC
MEAN_ELEMENT_THEORY = SGP/SGP4

EPOCH          = 2025-12-11T11:50:20.941152
MEAN_MOTION    = 14.16175379
ECCENTRICITY   = .00069953
INCLINATION    = 71.0119
RA_OF_ASC_NODE = 7.0485
ARG_OF_PERICENTER = 179.7143
MEAN_ANOMALY   = 180.3986

EPHEMERIS_TYPE = 0
CLASSIFICATION_TYPE = U
NORAD_CAT_ID   = 25407
ELEMENT_SET_NO = 999
REV_AT_EPOCH   = 41461
BSTAR          = -.67338121E-4
MEAN_MOTION_DOT = -.181E-5
MEAN_MOTION_DDOT = 0

CCSDS_OMM_VERS = 2.0
CREATION_DATE  = 
ORIGINATOR     = 

OBJECT_NAME    = ISS (ZARYA)
OBJECT_ID      = 1998-067A
CENTER_NAME    = EARTH
REF_FRAME      = TEME
TIME_SYSTEM    = UTC
MEAN_ELEMENT_THEORY = SGP/SGP4

EPOCH          = 2025-12-11T12:13:14.837664
MEAN_MOTION    = 15.49508857
ECCENTRICITY   = .00033166
INCLINATION    = 51.6308
RA_OF_ASC_NODE = 148.5724
ARG_OF_PERICENTER = 235.7177
MEAN_ANOMALY   = 124.3498

EPHEMERIS_TYPE = 0
CLASSIFICATION_TYPE = U
NORAD_CAT_ID   = 25544
ELEMENT_SET_NO = 999
REV_AT_EPOCH   = 54266
BSTAR          = .26544961E-3
MEAN_MOTION_DOT = .14464E-3
MEAN_MOTION_DDOT = 0

CCSDS_OMM_VERS = 2.0
CREATION_DATE  = 
ORIGINATOR     = 

OBJECT_NAME    = CZ-4B R/B
OBJECT_ID      = 1999-025C
CENTER_NAME    = EARTH
REF_FRAME      = TEME
TIME_SYSTEM    = UTC
MEAN_ELEMENT_THEORY = SGP/SGP4

EPOCH          = 2025-12-11T03:01:59.116224
MEAN_MOTION    = 14.18242935
ECCENTRICITY   = .00362401
INCLINATION    = 98.6771
RA_OF_ASC_NODE = 26.4425
ARG_OF_PERICENTER = 238.7589
MEAN_ANOMALY   = 181.4957

EPHEMERIS_TYPE = 0
CLASSIFICATION_TYPE = U
NORAD_CAT_ID   = 25732
ELEMENT_SET_NO = 999
REV_AT_EPOCH   = 37561
BSTAR          = .72795746E-4
MEAN_MOTION_DOT = .107E-5
MEAN_MOTION_DDOT = 0

CCSDS_OMM_VERS = 2.0
CREATION_DATE  = 
ORIGINATOR     = 

OBJECT_NAME    = OKEAN-O
OBJECT_ID      = 1999-039A
CENTER_NAME    = EARTH
REF_FRAME      = TEME
TIME_SYSTEM    = UTC
MEAN_ELEMENT_THEORY = SGP/SGP4

EPOCH          = 2025-12-11T10:30:03.987360
MEAN_MOTION    = 14.80158440
ECCENTRICITY   = .00008181
INCLINATION    = 97.9603
RA_OF_ASC_NODE = 41.1504
ARG_OF_PERICENTER = 95.9014
MEAN_ANOMALY   = 264.2291

EPHEMERIS_TYPE = 0
CLASSIFICATION_TYPE = U
NORAD_CAT_ID   = 25860
ELEMENT_SET_NO = 999
REV_AT_EPOCH   = 42133
BSTAR          = .179782E-3
MEAN_MOTION_DOT = .1313E-4
MEAN_MOTION_DDOT = 0

CCSDS_OMM_VERS = 2.0
CREATION_DATE  = 
ORIGINATOR     = 

OBJECT_NAME    = SL-16 R/B
OBJECT_ID      = 1999-039B
CENTER_NAME    = EARTH
REF_FRAME      = TEME
TIME_SYSTEM    = UTC
MEAN_ELEMENT_THEORY = SGP/SGP4

EPOCH          = 2025-12-11T10:24:47.143872
MEAN_MOTION    = 14.81584090
ECCENTRICITY   = .00148201
INCLINATION    = 98.0128
RA_OF_ASC_NODE = 39.5850
ARG_OF_PERICENTER = 178.8505
MEAN_ANOMALY   = 181.2744

EPHEMERIS_TYPE = 0
CLASSIFICATION_TYPE = U
NORAD_CAT_ID   = 25861
ELEMENT_SET_NO = 999
REV_AT_EPOCH   = 42379
BSTAR          = .14366969E-3
MEAN_MOTION_DOT = .1076E-4
MEAN_MOTION_DDOT = 0

CCSDS_OMM_VERS = 2.0
CREATION_DATE  = 
ORIGINATOR     = 

OBJECT_NAME    = DELTA 2 R/B
OBJECT_ID      = 1999-041E
CENTER_NAME    = EARTH
REF_FRAME      = TEME
TIME_SYSTEM    = UTC
MEAN_ELEMENT_THEORY = SGP/SGP4

EPOCH          = 2025-12-11T13:56:10.993920
MEAN_MOTION    = 14.11395969
ECCENTRICITY   = .05047195
INCLINATION    = 51.7614
RA_OF_ASC_NODE = 293.0728
ARG_OF_PERICENTER = 88.3492
MEAN_ANOMALY   = 277.5162

EPHEMERIS_TYPE = 0
CLASSIFICATION_TYPE = U
NORAD_CAT_ID   = 25876
ELEMENT_SET_NO = 999
REV_AT_EPOCH   = 35058
BSTAR          = .3237566E-3
MEAN_MOTION_DOT = .1767E-4
MEAN_MOTION_DDOT = 0

CCSDS_OMM_VERS = 2.0
CREATION_DATE  = 
ORIGINATOR     = 

OBJECT_NAME    = HELIOS 1B
OBJECT_ID      = 1999-064A
CENTER_NAME    = EARTH
REF_FRAME      = TEME
TIME_SYSTEM    = UTC
MEAN_ELEMENT_THEORY = SGP/SGP4

EPOCH          = 2025-12-11T14:13:10.756704
MEAN_MOTION    = 14.87275471
ECCENTRICITY   = .00017658
INCLINATION    = 98.1749
RA_OF_ASC_NODE = 240.2241
ARG_OF_PERICENTER = 45.4548
MEAN_ANOMALY   = 314.6811

EPHEMERIS_TYPE = 0
CLASSIFICATION_TYPE = U
NORAD_CAT_ID   = 25977
ELEMENT_SET_NO = 999
REV_AT_EPOCH   = 67216
BSTAR          = .43528469E-3
MEAN_MOTION_DOT = .3867E-4
MEAN_MOTION_DDOT = 0

CCSDS_OMM_VERS = 2.0
CREATION_DATE  = 
ORIGINATOR     = 

OBJECT_NAME    = TERRA
OBJECT_ID      = 1999-068A
CENTER_NAME    = EARTH
REF_FRAME      = TEME
TIME_SYSTEM    = UTC
MEAN_ELEMENT_THEORY = SGP/SGP4

EPOCH          = 2025-12-11T15:44:02.469696
MEAN_MOTION    = 14.60899989
ECCENTRICITY   = .00036048
INCLINATION    = 97.9751
RA_OF_ASC_NODE = 37.3799
ARG_OF_PERICENTER = 96.6560
MEAN_ANOMALY   = 55.5117

EPHEMERIS_TYPE = 0
CLASSIFICATION_TYPE = U
NORAD_CAT_ID   = 25994
ELEMENT_SET_NO = 999
REV_AT_EPOCH   = 38222
BSTAR          = .16839733E-3
MEAN_MOTION_DOT = .78E-5
MEAN_MOTION_DDOT = 0

